start=new Date('2022-06-07T00:00:00.000Z').valueOf();
sats=[{"CLASSIFICATION_TYPE":"U","BSTAR":"0.00040173000000","OBJECT_NAME":"STARLINK-4029","GP_ID":"205529670","EPHEMERIS_TYPE":"0","MEAN_ANOMALY":"72.1287","REF_FRAME":"TEME","COUNTRY_CODE":"US","APOAPSIS":"351.294","INCLINATION":"53.2145","TLE_LINE1":"1 52685U 22053AF  22157.91667824  .00056061  00000-0  40173-3 0  9994","MEAN_MOTION":"15.73167428","RCS_SIZE":"MEDIUM","FILE":"3484350","TIME_SYSTEM":"UTC","MEAN_MOTION_DDOT":"0.0000000000000","PERIOD":"91.535","TLE_LINE2":"2 52685  53.2145 201.3886 0002141  14.0863  72.1287 15.73167428  1301","MEAN_ELEMENT_THEORY":"SGP4","SITE":"AFETR","PERIAPSIS":"348.413","MEAN_MOTION_DOT":"0.00056061","NORAD_CAT_ID":"52685","OBJECT_ID":"2022-053AF","EPOCH":"2022-06-06T22:00:00.999936","LAUNCH_DATE":"2022-05-18","SEMIMAJOR_AXIS":"6727.988","CENTER_NAME":"EARTH","ARG_OF_PERICENTER":"14.0863","DECAY_DATE":null,"REV_AT_EPOCH":"130","ELEMENT_SET_NO":"999","RA_OF_ASC_NODE":"201.3886","ECCENTRICITY":"0.00021410","OBJECT_TYPE":"PAYLOAD"},{"REV_AT_EPOCH":"130","ELEMENT_SET_NO":"999","DECAY_DATE":null,"ARG_OF_PERICENTER":"17.0930","OBJECT_TYPE":"PAYLOAD","RA_OF_ASC_NODE":"201.3943","ECCENTRICITY":"0.00023040","SITE":"AFETR","MEAN_ELEMENT_THEORY":"SGP4","CENTER_NAME":"EARTH","SEMIMAJOR_AXIS":"6727.999","LAUNCH_DATE":"2022-05-18","OBJECT_ID":"2022-053AG","EPOCH":"2022-06-06T22:00:00.999936","PERIAPSIS":"348.314","MEAN_MOTION_DOT":"0.00057419","NORAD_CAT_ID":"52686","FILE":"3484350","RCS_SIZE":"LARGE","TIME_SYSTEM":"UTC","APOAPSIS":"351.414","MEAN_MOTION":"15.73163483","TLE_LINE1":"1 52686U 22053AG  22157.91667824  .00057419  00000-0  41135-3 0  9992","INCLINATION":"53.2148","TLE_LINE2":"2 52686  53.2148 201.3943 0002304  17.0930  66.7136 15.73163483  1307","PERIOD":"91.535","MEAN_MOTION_DDOT":"0.0000000000000","OBJECT_NAME":"STARLINK-4005","CLASSIFICATION_TYPE":"U","BSTAR":"0.00041135000000","COUNTRY_CODE":"US","REF_FRAME":"TEME","EPHEMERIS_TYPE":"0","MEAN_ANOMALY":"66.7136","GP_ID":"205529154"},{"CENTER_NAME":"EARTH","SEMIMAJOR_AXIS":"6727.963","LAUNCH_DATE":"2022-05-18","EPOCH":"2022-06-06T22:00:00.999936","OBJECT_ID":"2022-053AH","NORAD_CAT_ID":"52687","PERIAPSIS":"348.291","MEAN_MOTION_DOT":"0.00056265","SITE":"AFETR","MEAN_ELEMENT_THEORY":"SGP4","OBJECT_TYPE":"PAYLOAD","ECCENTRICITY":"0.00022840","RA_OF_ASC_NODE":"201.3872","ELEMENT_SET_NO":"999","REV_AT_EPOCH":"338","DECAY_DATE":null,"ARG_OF_PERICENTER":"13.2291","COUNTRY_CODE":"US","REF_FRAME":"TEME","MEAN_ANOMALY":"73.5502","EPHEMERIS_TYPE":"0","GP_ID":"205503058","OBJECT_NAME":"STARLINK-3981","CLASSIFICATION_TYPE":"U","BSTAR":"0.00040301000000","TLE_LINE2":"2 52687  53.2147 201.3872 0002284  13.2291  73.5502 15.73176308  3386","PERIOD":"91.535","MEAN_MOTION_DDOT":"0.0000000000000","TIME_SYSTEM":"UTC","FILE":"3484293","RCS_SIZE":"LARGE","TLE_LINE1":"1 52687U 22053AH  22157.91667824  .00056265  00000-0  40301-3 0  9995","INCLINATION":"53.2147","MEAN_MOTION":"15.73176308","APOAPSIS":"351.364"},{"OBJECT_NAME":"STARLINK-4032","BSTAR":"0.00026713000000","CLASSIFICATION_TYPE":"U","COUNTRY_CODE":"US","REF_FRAME":"TEME","MEAN_ANOMALY":"62.9271","EPHEMERIS_TYPE":"0","GP_ID":"205503572","TIME_SYSTEM":"UTC","RCS_SIZE":"MEDIUM","FILE":"3484294","TLE_LINE1":"1 52688U 22053AJ  22157.91667824  .00036967  00000-0  26713-3 0  9994","MEAN_MOTION":"15.73156696","INCLINATION":"53.2146","APOAPSIS":"351.398","TLE_LINE2":"2 52688  53.2146 201.3918 0002251  22.0611  62.9271 15.73156696  3388","PERIOD":"91.536","MEAN_MOTION_DDOT":"0.0000000000000","SITE":"AFETR","MEAN_ELEMENT_THEORY":"SGP4","SEMIMAJOR_AXIS":"6728.019","CENTER_NAME":"EARTH","LAUNCH_DATE":"2022-05-18","EPOCH":"2022-06-06T22:00:00.999936","OBJECT_ID":"2022-053AJ","NORAD_CAT_ID":"52688","PERIAPSIS":"348.369","MEAN_MOTION_DOT":"0.00036967","ELEMENT_SET_NO":"999","REV_AT_EPOCH":"338","DECAY_DATE":null,"ARG_OF_PERICENTER":"22.0611","OBJECT_TYPE":"PAYLOAD","ECCENTRICITY":"0.00022510","RA_OF_ASC_NODE":"201.3918"},{"RA_OF_ASC_NODE":"201.3840","ECCENTRICITY":"0.00023790","OBJECT_TYPE":"PAYLOAD","ARG_OF_PERICENTER":"27.6028","DECAY_DATE":null,"REV_AT_EPOCH":"338","ELEMENT_SET_NO":"999","PERIAPSIS":"348.086","MEAN_MOTION_DOT":"-0.00021148","NORAD_CAT_ID":"52689","OBJECT_ID":"2022-053AK","EPOCH":"2022-06-06T22:00:00.999936","LAUNCH_DATE":"2022-05-18","SEMIMAJOR_AXIS":"6727.821","CENTER_NAME":"EARTH","MEAN_ELEMENT_THEORY":"SGP4","SITE":"AFETR","MEAN_MOTION_DDOT":"0.0000000000000","PERIOD":"91.532","TLE_LINE2":"2 52689  53.2161 201.3840 0002379  27.6028  60.9794 15.73225953  3385","APOAPSIS":"351.287","MEAN_MOTION":"15.73225953","TLE_LINE1":"1 52689U 22053AK  22157.91667824 -.00021148  00000-0 -14644-3 0  9992","INCLINATION":"53.2161","FILE":"3484294","RCS_SIZE":"LARGE","TIME_SYSTEM":"UTC","GP_ID":"205503577","EPHEMERIS_TYPE":"0","MEAN_ANOMALY":"60.9794","REF_FRAME":"TEME","COUNTRY_CODE":"US","BSTAR":"-0.00014644000000","CLASSIFICATION_TYPE":"U","OBJECT_NAME":"STARLINK-4078"},{"APOAPSIS":"351.382","TLE_LINE1":"1 52690U 22053AL  22157.91667824  .00047962  00000-0  34422-3 0  9990","MEAN_MOTION":"15.73196767","INCLINATION":"53.2160","FILE":"3484294","RCS_SIZE":"MEDIUM","TIME_SYSTEM":"UTC","TLE_LINE2":"2 52690  53.2160 201.3910 0002397  24.4607  61.1451 15.73196767  3385","MEAN_MOTION_DDOT":"0.0000000000000","PERIOD":"91.533","OBJECT_NAME":"STARLINK-4035","BSTAR":"0.00034422000000","CLASSIFICATION_TYPE":"U","COUNTRY_CODE":"US","REF_FRAME":"TEME","GP_ID":"205503569","EPHEMERIS_TYPE":"0","MEAN_ANOMALY":"61.1451","REV_AT_EPOCH":"338","ELEMENT_SET_NO":"999","ARG_OF_PERICENTER":"24.4607","DECAY_DATE":null,"OBJECT_TYPE":"PAYLOAD","RA_OF_ASC_NODE":"201.3910","ECCENTRICITY":"0.00023970","SITE":"AFETR","MEAN_ELEMENT_THEORY":"SGP4","LAUNCH_DATE":"2022-05-18","CENTER_NAME":"EARTH","SEMIMAJOR_AXIS":"6727.904","MEAN_MOTION_DOT":"0.00047962","PERIAPSIS":"348.157","NORAD_CAT_ID":"52690","OBJECT_ID":"2022-053AL","EPOCH":"2022-06-06T22:00:00.999936"},{"MEAN_ELEMENT_THEORY":"SGP4","SITE":"AFETR","OBJECT_ID":"2022-053AM","EPOCH":"2022-06-06T22:00:00.999936","PERIAPSIS":"348.340","MEAN_MOTION_DOT":"0.00056062","NORAD_CAT_ID":"52691","CENTER_NAME":"EARTH","SEMIMAJOR_AXIS":"6728.045","LAUNCH_DATE":"2022-05-18","DECAY_DATE":null,"ARG_OF_PERICENTER":"19.7602","REV_AT_EPOCH":"338","ELEMENT_SET_NO":"999","RA_OF_ASC_NODE":"201.3828","ECCENTRICITY":"0.00023340","OBJECT_TYPE":"PAYLOAD","BSTAR":"0.00040207000000","CLASSIFICATION_TYPE":"U","OBJECT_NAME":"STARLINK-3945","EPHEMERIS_TYPE":"0","MEAN_ANOMALY":"69.4432","GP_ID":"205500234","COUNTRY_CODE":"US","REF_FRAME":"TEME","RCS_SIZE":"LARGE","FILE":"3484184","TIME_SYSTEM":"UTC","APOAPSIS":"351.480","MEAN_MOTION":"15.73147422","TLE_LINE1":"1 52691U 22053AM  22157.91667824  .00056062  00000-0  40207-3 0  9990","INCLINATION":"53.2163","PERIOD":"91.536","MEAN_MOTION_DDOT":"0.0000000000000","TLE_LINE2":"2 52691  53.2163 201.3828 0002334  19.7602  69.4432 15.73147422  3384"},{"ARG_OF_PERICENTER":"11.2591","DECAY_DATE":null,"REV_AT_EPOCH":"130","ELEMENT_SET_NO":"999","RA_OF_ASC_NODE":"201.3870","ECCENTRICITY":"0.00022400","OBJECT_TYPE":"PAYLOAD","MEAN_ELEMENT_THEORY":"SGP4","SITE":"AFETR","MEAN_MOTION_DOT":"0.00055783","PERIAPSIS":"348.423","NORAD_CAT_ID":"52692","OBJECT_ID":"2022-053AN","EPOCH":"2022-06-06T22:00:00.999936","LAUNCH_DATE":"2022-05-18","SEMIMAJOR_AXIS":"6728.065","CENTER_NAME":"EARTH","APOAPSIS":"351.437","TLE_LINE1":"1 52692U 22053AN  22157.91667824  .00055783  00000-0  40023-3 0  9996","INCLINATION":"53.2166","MEAN_MOTION":"15.73140355","FILE":"3484350","RCS_SIZE":"LARGE","TIME_SYSTEM":"UTC","MEAN_MOTION_DDOT":"0.0000000000000","PERIOD":"91.537","TLE_LINE2":"2 52692  53.2166 201.3870 0002240  11.2591  76.1524 15.73140355  1300","CLASSIFICATION_TYPE":"U","BSTAR":"0.00040023000000","OBJECT_NAME":"STARLINK-3993","GP_ID":"205529419","MEAN_ANOMALY":"76.1524","EPHEMERIS_TYPE":"0","REF_FRAME":"TEME","COUNTRY_CODE":"US"},{"BSTAR":"-0.00015958000000","CLASSIFICATION_TYPE":"U","OBJECT_NAME":"STARLINK-3946","EPHEMERIS_TYPE":"0","MEAN_ANOMALY":"74.5698","GP_ID":"205500625","COUNTRY_CODE":"US","REF_FRAME":"TEME","TIME_SYSTEM":"UTC","FILE":"3484184","RCS_SIZE":"LARGE","INCLINATION":"53.2164","TLE_LINE1":"1 52693U 22053AP  22157.91667824 -.00022972  00000-0 -15958-3 0  9992","MEAN_MOTION":"15.73213326","APOAPSIS":"351.231","PERIOD":"91.532","MEAN_MOTION_DDOT":"0.0000000000000","TLE_LINE2":"2 52693  53.2164 201.3804 0002242  15.8341  74.5698 15.73213326  3384","MEAN_ELEMENT_THEORY":"SGP4","SITE":"AFETR","EPOCH":"2022-06-06T22:00:00.999936","OBJECT_ID":"2022-053AP","NORAD_CAT_ID":"52693","MEAN_MOTION_DOT":"-0.00022972","PERIAPSIS":"348.214","SEMIMAJOR_AXIS":"6727.857","CENTER_NAME":"EARTH","LAUNCH_DATE":"2022-05-18","DECAY_DATE":null,"ARG_OF_PERICENTER":"15.8341","ELEMENT_SET_NO":"999","REV_AT_EPOCH":"338","ECCENTRICITY":"0.00022420","RA_OF_ASC_NODE":"201.3804","OBJECT_TYPE":"PAYLOAD"},{"PERIOD":"91.536","MEAN_MOTION_DDOT":"0.0000000000000","TLE_LINE2":"2 52694  53.2163 201.3857 0002387  18.3137  69.7298 15.73159046  1303","FILE":"3484350","RCS_SIZE":"LARGE","TIME_SYSTEM":"UTC","APOAPSIS":"351.483","MEAN_MOTION":"15.73159046","TLE_LINE1":"1 52694U 22053AQ  22157.91667824  .00023266  00000-0  17002-3 0  9990","INCLINATION":"53.2163","EPHEMERIS_TYPE":"0","MEAN_ANOMALY":"69.7298","GP_ID":"205529155","COUNTRY_CODE":"US","REF_FRAME":"TEME","CLASSIFICATION_TYPE":"U","BSTAR":"0.00017002000000","OBJECT_NAME":"STARLINK-4072","RA_OF_ASC_NODE":"201.3857","ECCENTRICITY":"0.00023870","OBJECT_TYPE":"PAYLOAD","DECAY_DATE":null,"ARG_OF_PERICENTER":"18.3137","REV_AT_EPOCH":"130","ELEMENT_SET_NO":"999","OBJECT_ID":"2022-053AQ","EPOCH":"2022-06-06T22:00:00.999936","MEAN_MOTION_DOT":"0.00023266","PERIAPSIS":"348.271","NORAD_CAT_ID":"52694","CENTER_NAME":"EARTH","SEMIMAJOR_AXIS":"6728.012","LAUNCH_DATE":"2022-05-18","MEAN_ELEMENT_THEORY":"SGP4","SITE":"AFETR"}];
